HST                     
1 20580U 90037B   22014.57320707  .00001203  00000+0  61364-4 0  9993
2 20580  28.4702 107.8970 0002644 171.4166 208.5134 15.09939287542933
POLAR                   
1 23802U 96013A   22012.45511796  .00000275  00000+0  00000+0 0  9991
2 23802  78.7329 243.1907 5882252 264.1755  30.1154  1.29846827123862
SWAS                    
1 25560U 98071A   22014.37035210  .00000546  00000+0  59237-4 0  9997
2 25560  69.8991  14.2476 0009384 214.7911 145.2632 14.94294280255003
CXO                     
1 25867U 99040B   22014.66923885  .00000312  00000+0  00000+0 0  9990
2 25867  49.6445 245.1696 8634766 229.1546   0.1816  0.37804926 11225
XMM-NEWTON              
1 25989U 99066A   22008.94778835 -.00000096  00000+0  00000+0 0  9990
2 25989  70.4654 307.7726 6268034  88.4378   0.3624  0.50132585 14885
TERRA                   
1 25994U 99068A   22014.53458470  .00000157  00000+0  44678-4 0  9991
2 25994  98.1559  89.8578 0001325  91.7729  42.2488 14.57130520174085
CLUSTER II-FM7 (SAMBA)  
1 26410U 00041A   22015.07004598  .00000317  00000+0  00000+0 0  9990
2 26410 133.5638 346.3357 5312745 196.4365 359.1984  0.44231068 13131
CLUSTER II-FM6 (SALSA)  
1 26411U 00041B   22015.06144828  .00000516  00000+0  00000+0 0  9992
2 26411 135.0970 348.9853 6908885 200.9827 359.1160  0.44223963 13184
CLUSTER II-FM5 (RUMBA)  
1 26463U 00045A   22015.06571905  .00000561  00000+0  00000+0 0  9993
2 26463 138.6926 349.1794 6438845 201.6023 359.1939  0.44223207 25478
CLUSTER II-FM8 (TANGO)  
1 26464U 00045B   22015.06887232  .00000317  00000+0  00000+0 0  9996
2 26464 133.5583 346.3235 5313506 196.4280 359.1871  0.44219513 13143
ODIN                    
1 26702U 01007A   22014.58739246  .00001618  00000+0  10637-3 0  9993
2 26702  97.5289  32.1952 0012149  96.3147 263.9466 15.08942399143068
TIMED                   
1 26998U 01055B   22014.33558039  .00000297  00000+0  36092-4 0  9991
2 26998  74.0710 226.6141 0001222 212.8123 147.2982 14.88426125 90073
RHESSI                  
1 27370U 02004A   22014.31186724  .00007367  00000+0  19820-3 0  9991
2 27370  38.0316 239.3634 0011299   1.4911 358.5894 15.37592965102838
INTEGRAL                
1 27540U 02048A   22011.95833333  .00000422  00000+0  00000+0 0  9991
2 27540  70.6482  69.6146 8962310 299.8317 208.4509  0.37573618 20568
CORIOLIS                
1 27640U 03001A   22014.55042878  .00000029  00000+0  34493-4 0  9998
2 27640  98.7201  25.9910 0014245 176.2485 296.0148 14.19097482985145
SORCE                   
1 27651U 03004A   22013.93928106  .00000352  00000+0  50329-4 0  9996
2 27651  39.9970 359.9454 0022093 108.0929 252.2268 14.89504436 30020
MOST                    
1 27843U 03031D   22014.53709969  .00000021  00000+0  29966-4 0  9996
2 27843  98.7087  24.3958 0009189 228.0560 131.9834 14.20657032961393
SCISAT 1                
1 27858U 03036A   22014.60417932  .00000208  00000+0  34140-4 0  9998
2 27858  73.9334 127.8154 0008477 211.0534 149.0141 14.77417422992707
SWIFT                   
1 28485U 04047A   22014.46274125  .00001878  00000+0  96320-4 0  9999
2 28485  20.5574 310.5384 0011000 146.8032 213.3094 15.05441446940304
CLOUDSAT                
1 29107U 06016A   22014.57189735  .00000109  00000+0  30959-4 0  9995
2 29107  98.3082 333.4994 0004234  70.8676 289.2984 14.62766179836539
CALIPSO                 
1 29108U 06016B   22014.56396100  .00000364  00000+0  80973-4 0  9995
2 29108  98.3051 333.1309 0001250  86.1357 273.9987 14.62680210836527
HINODE (SOLAR-B)        
1 29479U 06041A   22014.46529549  .00000297  00000+0  64898-4 0  9991
2 29479  98.1286  31.5371 0018745 355.1291   4.9727 14.64653897818210
SJ-6C                   
1 29505U 06046A   22014.56074764  .00001215  00000+0  11507-3 0  9990
2 29505  97.7900  36.5669 0002843 283.2167  76.8726 14.95454460829698
SJ-6D                   
1 29506U 06046B   22014.48636013  .00001000  00000+0  99865-4 0  9999
2 29506  97.8095  36.7066 0002976  45.7361 314.4108 14.93713949829156
AGILE                   
1 31135U 07013A   22014.30798606  .00005439  00000+0  12089-3 0  9995
2 31135   2.4696   4.6426 0011222 192.2291 167.7490 15.34951886453206
AIM                     
1 31304U 07015A   22014.31849608  .00003001  00000+0  16272-3 0  9996
2 31304  97.8600 288.0539 0004936 167.8841 192.2510 15.15401089807835
FGRST (GLAST)           
1 33053U 08029A   22014.52407801  .00000952  00000+0  37383-4 0  9992
2 33053  25.5820 136.4092 0012070 195.2393 164.7780 15.11736818750371
IBEX                    
1 33401U 08051A   22019.38888889 -.00001658  00000+0  00000+0 0  9998
2 33401  44.9273  44.3145 5093472  45.4837   3.9013  0.10593383  5344
WISE                    
1 36119U 09071A   22014.56809323  .00002812  00000+0  94117-4 0  9990
2 36119  97.2610  52.0993 0003937 114.6215 245.5437 15.31770412671934
SDO                     
1 36395U 10005A   22014.25521478 -.00000083  00000+0  00000+0 0  9995
2 36395  31.3602 111.7359 0001698 226.2418 125.4631  1.00269439 43866
CRYOSAT 2               
1 36508U 10013A   22014.56277244  .00000126  00000+0  30572-4 0  9992
2 36508  92.0253 246.8188 0007741  61.9083 298.2906 14.51904177623802
X-SAT                   
1 37389U 11015C   22014.39162255 -.00000013  00000+0  12084-4 0  9993
2 37389  98.3565  55.3203 0015141  46.9241 313.3206 14.24398159558275
GCOM-W1 (SHIZUKU)       
1 38337U 12025A   22014.41536924  .00000150  00000+0  43359-4 0  9990
2 38337  98.2321 317.2825 0001178  46.6068  62.9356 14.57126806513882
NUSTAR                  
1 38358U 12031A   22014.33698458  .00001538  00000+0  85966-4 0  9993
2 38358   6.0280  44.5553 0012127 273.7562  86.1180 14.88783065521840
NEOSSAT                 
1 39089U 13009D   22014.53294324  .00000082  00000+0  44013-4 0  9998
2 39089  98.4273 214.6100 0011682  21.0989 339.0676 14.34608464465149
BRITE-AUSTRIA           
1 39091U 13009F   22014.56302652  .00000067  00000+0  38451-4 0  9990
2 39091  98.4115 215.7757 0010906  22.6109 337.5555 14.35221406465356
IRIS                    
1 39197U 13033A   22014.54580951  .00000457  00000+0  68602-4 0  9996
2 39197  97.9649 201.7888 0027861 164.4150 195.7925 14.78989776461223
HISAKI (SPRINT-A)       
1 39253U 13049A   22014.49597255  .00000040  00000+0 -35715-4 0  9993
2 39253  29.7188 147.1148 0137194 249.6899 108.8881 13.55256667412206
CASSIOPE                
1 39265U 13055A   22014.53409001  .00006551  00000+0  17708-3 0  9992
2 39265  80.9660  70.0893 0638969  53.2040 312.6043 14.34874933430235
STSAT-3                 
1 39422U 13066G   22014.52736418  .00000770  00000+0  84664-4 0  9996
2 39422  97.4722  28.0041 0024562  75.8635 284.5321 14.90098530442915
SWARM B                 
1 39451U 13067A   22014.56048820  .00001136  00000+0  47764-4 0  9993
2 39451  87.7515 107.4563 0002977 115.2001 244.9553 15.22353690437538
SWARM A                 
1 39452U 13067B   22014.55211598  .00000381  00000+0  66305-5 0  9991
2 39452  87.3596 280.7074 0002311  81.3119 278.8401 15.46784005458154
SWARM C                 
1 39453U 13067C   22014.55201830  .00003934  00000+0  77696-4 0  9991
2 39453  87.3451 280.4917 0002425  81.0197 279.1336 15.46785813458112
BRITE-CA1 (TORONTO)     
1 40020U 14033L   22014.53404765  .00000204  00000+0  42770-4 0  9999
2 40020  97.7566 181.5279 0087930  35.2320 325.4654 14.66834047405093
OCO 2                   
1 40059U 14035A   22014.59726701  .00000133  00000+0  39681-4 0  9994
2 40059  98.2330 318.2172 0001262  86.7031 273.4312 14.57112513400922
BRITE-PL2 (HEWELIUSZ)   
1 40119U 14049B   22014.50681848  .00000385  00000+0  51671-4 0  9991
2 40119  97.8861 111.7868 0017946  30.2066 330.0179 14.84798722401169
RESURS P2               
1 40360U 14087A   22014.52072322  .00002077  00000+0  63355-4 0  9996
2 40360  97.2182 102.6314 0007892 288.2305 167.7480 15.35032039394634
MMS 1                   
1 40482U 15011A   22008.37500000 -.00001233  00000+0  00000+0 0  9991
2 40482  33.3599 111.7803 8517946  42.8660 283.7551  0.28384879 12844
MMS 2                   
1 40483U 15011B   22008.37500000 -.00001233  00000+0  00000+0 0  9992
2 40483  33.3582 111.7837 8517346  42.8717 283.7302  0.28384845 12905
MMS 3                   
1 40484U 15011C   22008.37500000 -.00001234  00000+0  00000+0 0  9994
2 40484  33.3393 111.7233 8517200  42.9072 283.7417  0.28383883 12582
MMS 4                   
1 40485U 15011D   21358.38194444 -.00000655  00000+0  00000+0 0  9990
2 40485  33.4160 112.2158 8502213  41.9658 191.5563  0.28423511 12755
ASTROSAT                
1 40930U 15052A   22013.99379560  .00000864  00000+0  32114-4 0  9997
2 40930   5.9950 199.6142 0008213 133.2186 226.8628 14.76461294340281
DAMPE                   
1 41173U 15078A   22014.53560476  .00000359  00000+0  17626-4 0  9994
2 41173  97.3658   7.7985 0014786  28.3676  85.5705 15.24149461338135
PISAT                   
1 41784U 16059B   22014.13428019  .00000204  00000+0  47889-4 0  9997
2 41784  97.9397  63.3244 0030643 298.3696  61.4418 14.63723944283113
HXMT (HUIYAN)           
1 42758U 17034A   22014.53780688  .00000861  00000+0  66161-4 0  9993
2 42758  43.0160 114.1983 0007660  27.8358 346.6639 15.09573460252917
FLYING LAPTOP           
1 42831U 17042G   22014.50623525  .00001007  00000+0  10574-3 0  9996
2 42831  97.4407 237.7491 0014549 156.4500 203.7416 14.91465507245149
PICSAT                  
1 43132U 18004X   22014.19911837  .00005228  00000+0  19707-3 0  9997
2 43132  97.3906  91.8034 0008644 174.8143 185.3187 15.27471763222837
ZHANGZHENG-1 (CSES)     
1 43194U 18015C   22014.50901918  .00003005  00000+0  13792-3 0  9990
2 43194  97.5017 145.7115 0010785 256.7296 174.3457 15.21152134219226
ICON                    
1 44628U 19068A   22014.30752672  .00001063  00000+0  82176-4 0  9996
2 44628  26.9881 235.5408 0018891 109.2130 251.0473 14.92220955123513
SALSAT                  
1 46495U 20068K   22014.55454536  .00000716  00000+0  56506-4 0  9999
2 46495  97.7141 316.0509 0018818  79.5715 280.7629 15.03781344 71056
IXPE                    
1 49954U 21121A   22014.27531069  .00001543  00000+0  77522-4 0  9999
2 49954   0.2309  73.6907 0011332 189.5342  96.6462 14.90792625  5374
